NORAD_CAT_ID,OBJECT_NAME,OBJECT_TYPE,EPOCH,MEAN_MOTION,ECCENTRICITY,INCLINATION,RA_OF_ASC_NODE,ARG_OF_PERICENTER,MEAN_ANOMALY,BSTAR,MEAN_MOTION_DOT,MEAN_MOTION_DDOT,TLE_LINE0,TLE_LINE1,TLE_LINE2,SEMIMAJOR_AXIS,PERIOD,APOGEE,PERIGEE,DECAYED
53532.0,STARLINK-4483,PAYLOAD,2022-12-05 19:10:09,15.08844115,0.0002111,53.2187,15.7497,38.8947,321.2196,6.7809e-05,7.91e-06,0.0,0 STARLINK-4483,1 53532U 22101F   22339.79872254  .00000791  00000-0  67809-4 0  9998,2 53532  53.2187  15.7497 0002111  38.8947 321.2196 15.08844115 16539,6917.868,95.437,541.193,538.2719999999998,0.0
53532.0,STARLINK-4483,PAYLOAD,2022-12-06 09:28:37,15.0884495,0.0002096,53.2189,13.0732,33.8214,326.2912,2.646e-05,1.33e-06,0.0,0 STARLINK-4483,1 53532U 22101F   22340.39488229  .00000133  00000-0  26460-4 0  9999,2 53532  53.2189  13.0732 0002096  33.8214 326.2912 15.08844950 16626,6917.865,95.437,541.18,538.28,0.0
53532.0,STARLINK-4483,PAYLOAD,2022-12-06 19:00:57,15.08831409,0.0002759,53.2208,11.2912,36.9413,323.1769,-2.4496e-05,-6.78e-06,0.0,0 STARLINK-4483,1 53532U 22101F   22340.79233483 -.00000678  00000-0 -24496-4 0  9996,2 53532  53.2208  11.2912 0002759  36.9413 323.1769 15.08831409 16686,6917.906999999997,95.438,541.68,537.863,0.0
53532.0,STARLINK-4483,PAYLOAD,2022-12-07 02:57:52,15.08839162,0.0002164,53.2188,9.8021,34.378,325.7352,-5.1187e-05,-1.103e-05,0.0,0 STARLINK-4483,1 53532U 22101F   22341.12352986 -.00001103  00000-0 -51187-4 0  9995,2 53532  53.2188   9.8021 0002164  34.3780 325.7352 15.08839162 16732,6917.8830000000025,95.438,541.245,538.251,0.0
53532.0,STARLINK-4483,PAYLOAD,2022-12-07 18:51:44,15.08840594,0.0002127,53.2205,6.8295,36.7283,323.3854,-3.6884e-07,-2.94e-06,0.0,0 STARLINK-4483,1 53532U 22101F   22341.78592900 -.00000294  00000-0 -36884-6 0  9998,2 53532  53.2205   6.8295 0002127  36.7283 323.3854 15.08840594 16838,6917.879,95.438,541.215,538.2719999999998,0.0
53532.0,STARLINK-4483,PAYLOAD,2022-12-08 01:13:16,15.08844865,0.0002182,53.2199,5.6396,36.0448,324.0691,3.984e-05,3.46e-06,0.0,0 STARLINK-4483,1 53532U 22101F   22342.05088501  .00000346  00000-0  39840-4 0  9995,2 53532  53.2199   5.6396 0002182  36.0448 324.0691 15.08844865 16872,6917.866,95.437,541.24,538.221,0.0
53532.0,STARLINK-4483,PAYLOAD,2022-12-08 02:48:39,15.08849473,0.0002193,53.2192,5.3425,36.6844,323.4298,5.9559e-05,6.6e-06,0.0,0 STARLINK-4483,1 53532U 22101F   22342.11712115  .00000660  00000-0  59559-4 0  9995,2 53532  53.2192   5.3425 0002193  36.6844 323.4298 15.08849473 16880,6917.851,95.437,541.234,538.1990000000002,0.0
53532.0,STARLINK-4483,PAYLOAD,2022-12-08 07:34:48,15.08853502,0.0002251,53.2194,4.4506,39.6773,320.4384,0.00015491,2.179e-05,0.0,0 STARLINK-4483,1 53532U 22101F   22342.31583521  .00002179  00000-0  15491-3 0  9997,2 53532  53.2194   4.4506 0002251  39.6773 320.4384 15.08853502 16916,6917.839,95.437,541.261,538.1469999999998,0.0
53532.0,STARLINK-4483,PAYLOAD,2022-12-09 10:36:22,15.08835483,0.0001759,53.2195,359.3956,20.8395,339.2669,9.2319e-05,1.181e-05,0.0,0 STARLINK-4483,1 53532U 22101F   22343.44192553  .00001181  00000-0  92319-4 0  9990,2 53532  53.2195 359.3956 0001759  20.8395 339.2669 15.08835483 17083,6917.894,95.438,540.976,538.5419999999998,0.0
53532.0,STARLINK-4483,PAYLOAD,2022-12-09 18:33:19,15.08814406,0.0002211,53.2196,357.9093,34.8432,325.2704,-0.0001119,-2.067e-05,0.0,0 STARLINK-4483,1 53532U 22101F   22343.77314755 -.00002067  00000-0 -11190-3 0  9999,2 53532  53.2196 357.9093 0002211  34.8432 325.2704 15.08814406 17134,6917.959,95.439,541.3530000000002,538.294,0.0
53532.0,STARLINK-4483,PAYLOAD,2022-12-10 07:16:21,15.08885283,0.0001306,53.22,355.5332,52.6583,307.4528,7.4667e-05,9.02e-06,0.0,0 STARLINK-4483,1 53532U 22101F   22344.30302220  .00000902  00000-0  74667-4 0  9996,2 53532  53.2200 355.5332 0001306  52.6583 307.4528 15.08885283 17215,6917.7419999999975,95.435,540.51,538.7040000000002,0.0
53532.0,STARLINK-4483,PAYLOAD,2022-12-10 12:02:37,15.0878136,0.0001898,53.2197,354.6411,38.3741,321.7385,-0.00076119,-0.00012363,0.0,0 STARLINK-4483,1 53532U 22101F   22344.50182714 -.00012363  00000-0 -76119-3 0  9991,2 53532  53.2197 354.6411 0001898  38.3741 321.7385 15.08781360 17245,6918.06,95.441,541.238,538.612,0.0
53532.0,STARLINK-4483,PAYLOAD,2022-12-11 03:56:24,15.08859094,0.0001769,53.2201,351.6655,358.116,1.9825,-0.00021721,-3.745e-05,0.0,0 STARLINK-4483,1 53532U 22101F   22345.16416779 -.00003745  00000-0 -21721-3 0  9998,2 53532  53.2201 351.6655 0001769 358.1160   1.9825 15.08859094 17340,6917.821999999999,95.436,540.911,538.4630000000002,0.0
53532.0,STARLINK-4483,PAYLOAD,2022-12-11 07:07:10,15.08827518,0.0002137,53.2192,351.07199999999995,10.2566,349.847,0.00023373,3.432e-05,0.0,0 STARLINK-4483,1 53532U 22101F   22345.29664936  .00003432  00000-0  23373-3 0  9998,2 53532  53.2192 351.0720 0002137  10.2566 349.8470 15.08827518 17360,6917.919,95.438,541.262,538.305,0.0
53532.0,STARLINK-4483,PAYLOAD,2022-12-11 11:53:18,15.08890158,0.0002427,53.2189,350.1782,325.4881,34.5953,-0.00057138,-9.383e-05,0.0,0 STARLINK-4483,1 53532U 22101F   22345.49535349 -.00009383  00000-0 -57138-3 0  9994,2 53532  53.2189 350.1782 0002427 325.4881  34.5953 15.08890158 17394,6917.727,95.434,541.271,537.913,0.0
53532.0,STARLINK-4483,PAYLOAD,2022-12-12 00:36:25,15.08827739,0.0002126,53.2187,347.7997,23.3243,336.7845,0.00023074,3.385e-05,0.0,0 STARLINK-4483,1 53532U 22101F   22346.02529548  .00003385  00000-0  23074-3 0  9994,2 53532  53.2187 347.7997 0002126  23.3243 336.7845 15.08827739 17475,6917.918000000002,95.438,541.254,538.312,0.0
53532.0,STARLINK-4483,PAYLOAD,2022-12-12 06:57:58,15.08839431,0.0002295,53.219,346.6103,35.0758,325.0385,1.3665e-05,-7.1e-07,0.0,0 STARLINK-4483,1 53532U 22101F   22346.29025628 -.00000071  00000-0  13665-4 0  9999,2 53532  53.2190 346.6103 0002295  35.0758 325.0385 15.08839431 17511,6917.882,95.438,541.335,538.159,0.0
53532.0,STARLINK-4483,PAYLOAD,2022-12-13 00:27:12,15.0884456,0.0002234,53.2189,343.3384,38.2352,321.8799,-1.5374000000000002e-05,-5.33e-06,0.0,0 STARLINK-4483,1 53532U 22101F   22347.01889202 -.00000533  00000-0 -15374-4 0  9999,2 53532  53.2189 343.3384 0002234  38.2352 321.8799 15.08844560 17626,6917.866,95.437,541.2769999999998,538.186,0.0
53532.0,STARLINK-4483,PAYLOAD,2022-12-13 06:48:44,15.08843766,0.0002349,53.2189,342.1496,36.758,323.3573,9.6863e-06,-1.34e-06,0.0,0 STARLINK-4483,1 53532U 22101F   22347.28385142 -.00000134  00000-0  96863-5 0  9991,2 53532  53.2189 342.1496 0002349  36.7580 323.3573 15.08843766 17668,6917.869000000002,95.437,541.359,538.109,0.0
53532.0,STARLINK-4483,PAYLOAD,2022-12-13 16:21:04,15.08838868,0.0002289,53.2189,340.3658,34.972,325.1422,-0.00010075,-1.891e-05,0.0,0 STARLINK-4483,1 53532U 22101F   22347.68129756 -.00001891  00000-0 -10075-3 0  9993,2 53532  53.2189 340.3658 0002289  34.9720 325.1422 15.08838868 17724,6917.884,95.438,541.332,538.165,0.0
53532.0,STARLINK-4483,PAYLOAD,2022-12-14 00:17:59,15.0884159,0.0002277,53.2191,338.8762,33.7636,326.3501,5.1507e-05,5.32e-06,0.0,0 STARLINK-4483,1 53532U 22101F   22348.01249128  .00000532  00000-0  51507-4 0  9992,2 53532  53.2191 338.8762 0002277  33.7636 326.3501 15.08841590 17777,6917.876,95.437,541.316,538.165,0.0
53532.0,STARLINK-4483,PAYLOAD,2022-12-14 08:14:55,15.08835617,0.0002264,53.2185,337.3907,30.2262,329.886,7.4862e-06,-1.69e-06,0.0,0 STARLINK-4483,1 53532U 22101F   22348.34369719 -.00000169  00000-0  74862-5 0  9994,2 53532  53.2185 337.3907 0002264  30.2262 329.8860 15.08835617 17823,6917.894,95.438,541.325,538.193,0.0
53532.0,STARLINK-4483,PAYLOAD,2022-12-14 16:11:50,15.088413699999998,0.000227,53.2187,335.9035,31.1758,328.9369,7.0146e-05,8.28e-06,0.0,0 STARLINK-4483,1 53532U 22101F   22348.67489207  .00000828  00000-0  70146-4 0  9996,2 53532  53.2187 335.9035 0002270  31.1758 328.9369 15.08841370 17870,6917.876,95.437,541.312,538.1709999999998,0.0
53532.0,STARLINK-4483,PAYLOAD,2022-12-15 08:05:42,15.08840794,0.000232,53.2184,332.9294,30.4239,329.6887,4.0596e-05,3.58e-06,0.0,0 STARLINK-4483,1 53532U 22101F   22349.33729320  .00000358  00000-0  40596-4 0  9997,2 53532  53.2184 332.9294 0002320  30.4239 329.6887 15.08840794 17976,6917.878000000002,95.438,541.3480000000002,538.138,0.0
53532.0,STARLINK-4483,PAYLOAD,2022-12-15 16:02:38,15.08838285,0.000232,53.2188,331.4426,32.686,327.4275,-2.1395e-05,-6.29e-06,0.0,0 STARLINK-4483,1 53532U 22101F   22349.66849681 -.00000629  00000-0 -21395-4 0  9995,2 53532  53.2188 331.4426 0002320  32.6860 327.4275 15.08838285 18021,6917.886,95.438,541.356,538.146,0.0
53532.0,STARLINK-4483,PAYLOAD,2022-12-16 07:56:29,15.08836546,0.0002268,53.2195,328.4694,31.0868,329.0258,4.1862e-05,3.78e-06,0.0,0 STARLINK-4483,1 53532U 22101F   22350.33089730  .00000378  00000-0  41862-4 0  9992,2 53532  53.2195 328.4694 0002268  31.0868 329.0258 15.08836546 18122,6917.891,95.438,541.325,538.187,0.0
53532.0,STARLINK-4483,PAYLOAD,2022-12-16 15:53:24,15.08845306,0.0002142,53.2194,326.9837,31.891,328.2211,8.6141e-05,1.083e-05,0.0,0 STARLINK-4483,1 53532U 22101F   22350.66208982  .00001083  00000-0  86141-4 0  9993,2 53532  53.2194 326.9837 0002142  31.8910 328.2211 15.08845306 18179,6917.864000000001,95.437,541.211,538.247,0.0
53532.0,STARLINK-4483,PAYLOAD,2022-12-17 10:58:02,15.08842484,0.0002266,53.2191,323.4149,34.1553,325.9584,5.0434e-05,5.14e-06,0.0,0 STARLINK-4483,1 53532U 22101F   22351.45697145  .00000514  00000-0  50434-4 0  9998,2 53532  53.2191 323.4149 0002266  34.1553 325.9584 15.08842484 18294,6917.873000000001,95.437,541.305,538.17,0.0
53532.0,STARLINK-4483,PAYLOAD,2022-12-17 15:44:12,15.08831518,0.0002139,53.2185,322.5239,34.9149,325.1984,1.1905e-05,-9.9e-07,0.0,0 STARLINK-4483,1 53532U 22101F   22351.65570072 -.00000099  00000-0  11905-4 0  9998,2 53532  53.2185 322.5239 0002139  34.9149 325.1984 15.08831518 18321,6917.906,95.438,541.251,538.2919999999998,0.0
